[{"OBJECT_NAME":"COSMOS 2576","OBJECT_ID":"2024-092A","EPOCH":"2026-03-09T19:49:29.705664","MEAN_MOTION":15.27760963,"ECCENTRICITY":0.0005946,"INCLINATION":97.4253,"RA_OF_ASC_NODE":186.0053,"ARG_OF_PERICENTER":159.7731,"MEAN_ANOMALY":200.3745,"EPHEMERIS_TYPE":0,"CLASSIFICATION_TYPE":"U","NORAD_CAT_ID":59773,"ELEMENT_SET_NO":999,"REV_AT_EPOCH":10127,"BSTAR":0.00056283,"MEAN_MOTION_DOT":0.00015211,"MEAN_MOTION_DDOT":0},{"OBJECT_NAME":"STARLINK-32805","OBJECT_ID":"2025-014F","EPOCH":"2026-03-09T22:56:23.105472","MEAN_MOTION":15.27594193,"ECCENTRICITY":0.0001272,"INCLINATION":43.0028,"RA_OF_ASC_NODE":153.277,"ARG_OF_PERICENTER":281.2805,"MEAN_ANOMALY":78.7904,"EPHEMERIS_TYPE":0,"CLASSIFICATION_TYPE":"U","NORAD_CAT_ID":62740,"ELEMENT_SET_NO":999,"REV_AT_EPOCH":6329,"BSTAR":0.0010968222,"MEAN_MOTION_DOT":0.00030056,"MEAN_MOTION_DDOT":0}]
